STARLINK-32405          
1 61636U 24191R   26068.24252237 -.00001069  00000+0 -29301-4 0  9994
2 61636  43.0024 160.8737 0003398 286.9855  73.0624 15.27567531 77429
FLOCK 4G-14             
1 62667U 25009BL  26068.75869712  .00011310  00000+0  42676-3 0  9993
2 62667  97.4064 151.1836 0003006 318.3639  41.7371 15.27197201 63711
